{
  "links" : {
    "next" : "https://api.nasa.gov/neo/rest/v1/feed?start_date=2013-03-09&end_date=2013-03-09&detailed=true&api_key=t0TVs3DtDT2H8Oy2Zy8m2eVrNsAVKAexjcZXUckd",
    "prev" : "https://api.nasa.gov/neo/rest/v1/feed?start_date=2013-03-07&end_date=2013-03-07&detailed=true&api_key=t0TVs3DtDT2H8Oy2Zy8m2eVrNsAVKAexjcZXUckd",
    "self" : "https://api.nasa.gov/neo/rest/v1/feed?start_date=2013-03-08&end_date=2013-03-08&detailed=true&api_key=t0TVs3DtDT2H8Oy2Zy8m2eVrNsAVKAexjcZXUckd"
  },
  "element_count" : 6,
  "near_earth_objects" : {
    "2013-03-08" : [ {
      "links" : {
        "self" : "https://api.nasa.gov/neo/rest/v1/neo/3632676?api_key=t0TVs3DtDT2H8Oy2Zy8m2eVrNsAVKAexjcZXUckd"
      },
      "neo_reference_id" : "3632676",
      "name" : "(2013 EW108)",
      "nasa_jpl_url" : "http://ssd.jpl.nasa.gov/sbdb.cgi?sstr=3632676",
      "absolute_magnitude_h" : 19.9,
      "estimated_diameter" : {
        "kilometers" : {
          "estimated_diameter_min" : 0.2783267681,
          "estimated_diameter_max" : 0.6223575734
        },
        "meters" : {
          "estimated_diameter_min" : 278.3267680719,
          "estimated_diameter_max" : 622.3575733667
        },
        "miles" : {
          "estimated_diameter_min" : 0.1729441822,
          "estimated_diameter_max" : 0.3867149477
        },
        "feet" : {
          "estimated_diameter_min" : 913.1455937611,
          "estimated_diameter_max" : 2041.8556210042
        }
      },
      "is_potentially_hazardous_asteroid" : false,
      "close_approach_data" : [ {
        "close_approach_date" : "2013-03-08",
        "epoch_date_close_approach" : 1362729600000,
        "relative_velocity" : {
          "kilometers_per_second" : "15.1924746377",
          "kilometers_per_hour" : "54692.9086957319",
          "miles_per_hour" : "33984.0465170785"
        },
        "miss_distance" : {
          "astronomical" : "0.2862186577",
          "lunar" : "111.339050293",
          "kilometers" : "42817700",
          "miles" : "26605686"
        },
        "orbiting_body" : "Earth"
      } ],
      "orbital_data" : {
        "orbit_id" : "22",
        "orbit_determination_date" : "2017-04-06 08:46:24",
        "orbit_uncertainty" : "3",
        "minimum_orbit_intersection" : ".25368",
        "jupiter_tisserand_invariant" : "3.339",
        "epoch_osculation" : "2458000.5",
        "eccentricity" : ".4583792241069325",
        "semi_major_axis" : "2.272317173943422",
        "inclination" : "26.70283524278131",
        "ascending_node_longitude" : "350.4168461474947",
        "orbital_period" : "1251.128315468161",
        "perihelion_distance" : "1.230734190826379",
        "perihelion_argument" : "162.0305594620973",
        "aphelion_distance" : "3.313900157060466",
        "perihelion_time" : "2457602.706741435211",
        "mean_anomaly" : "114.4611398469852",
        "mean_motion" : ".2877402705615301",
        "equinox" : "J2000"
      }
    }, {
      "links" : {
        "self" : "https://api.nasa.gov/neo/rest/v1/neo/3666431?api_key=t0TVs3DtDT2H8Oy2Zy8m2eVrNsAVKAexjcZXUckd"
      },
      "neo_reference_id" : "3666431",
      "name" : "(2014 FZ6)",
      "nasa_jpl_url" : "http://ssd.jpl.nasa.gov/sbdb.cgi?sstr=3666431",
      "absolute_magnitude_h" : 24.7,
      "estimated_diameter" : {
        "kilometers" : {
          "estimated_diameter_min" : 0.0305179233,
          "estimated_diameter_max" : 0.0682401509
        },
        "meters" : {
          "estimated_diameter_min" : 30.5179232594,
          "estimated_diameter_max" : 68.2401509401
        },
        "miles" : {
          "estimated_diameter_min" : 0.0189629525,
          "estimated_diameter_max" : 0.0424024508
        },
        "feet" : {
          "estimated_diameter_min" : 100.1244233463,
          "estimated_diameter_max" : 223.8850168104
        }
      },
      "is_potentially_hazardous_asteroid" : false,
      "close_approach_data" : [ {
        "close_approach_date" : "2013-03-08",
        "epoch_date_close_approach" : 1362729600000,
        "relative_velocity" : {
          "kilometers_per_second" : "8.0634646408",
          "kilometers_per_hour" : "29028.4727067253",
          "miles_per_hour" : "18037.1640549094"
        },
        "miss_distance" : {
          "astronomical" : "0.1690140281",
          "lunar" : "65.7464523315",
          "kilometers" : "25284138",
          "miles" : "15710835"
        },
        "orbiting_body" : "Earth"
      } ],
      "orbital_data" : {
        "orbit_id" : "9",
        "orbit_determination_date" : "2017-04-06 08:41:58",
        "orbit_uncertainty" : "7",
        "minimum_orbit_intersection" : ".0726773",
        "jupiter_tisserand_invariant" : "6.138",
        "epoch_osculation" : "2458000.5",
        "eccentricity" : ".09035193779103426",
        "semi_major_axis" : ".9818324486265728",
        "inclination" : "14.38143492020475",
        "ascending_node_longitude" : "183.5727420248305",
        "orbital_period" : "355.3485097078266",
        "perihelion_distance" : ".8931219843070459",
        "perihelion_argument" : "170.2190260786329",
        "aphelion_distance" : "1.0705429129461",
        "perihelion_time" : "2457975.239283840319",
        "mean_anomaly" : "25.59137739162697",
        "mean_motion" : "1.013089938933465",
        "equinox" : "J2000"
      }
    }, {
      "links" : {
        "self" : "https://api.nasa.gov/neo/rest/v1/neo/3760530?api_key=t0TVs3DtDT2H8Oy2Zy8m2eVrNsAVKAexjcZXUckd"
      },
      "neo_reference_id" : "3760530",
      "name" : "(2016 TP11)",
      "nasa_jpl_url" : "http://ssd.jpl.nasa.gov/sbdb.cgi?sstr=3760530",
      "absolute_magnitude_h" : 24.3,
      "estimated_diameter" : {
        "kilometers" : {
          "estimated_diameter_min" : 0.0366906138,
          "estimated_diameter_max" : 0.0820427065
        },
        "meters" : {
          "estimated_diameter_min" : 36.6906137531,
          "estimated_diameter_max" : 82.0427064882
        },
        "miles" : {
          "estimated_diameter_min" : 0.0227984834,
          "estimated_diameter_max" : 0.0509789586
        },
        "feet" : {
          "estimated_diameter_min" : 120.3760332259,
          "estimated_diameter_max" : 269.1689931548
        }
      },
      "is_potentially_hazardous_asteroid" : false,
      "close_approach_data" : [ {
        "close_approach_date" : "2013-03-08",
        "epoch_date_close_approach" : 1362729600000,
        "relative_velocity" : {
          "kilometers_per_second" : "20.5586891793",
          "kilometers_per_hour" : "74011.2810454713",
          "miles_per_hour" : "45987.7318251708"
        },
        "miss_distance" : {
          "astronomical" : "0.4895947911",
          "lunar" : "190.4523773193",
          "kilometers" : "73242336",
          "miles" : "45510680"
        },
        "orbiting_body" : "Earth"
      } ],
      "orbital_data" : {
        "orbit_id" : "17",
        "orbit_determination_date" : "2017-04-06 08:23:16",
        "orbit_uncertainty" : "5",
        "minimum_orbit_intersection" : ".00796069",
        "jupiter_tisserand_invariant" : "5.898",
        "epoch_osculation" : "2458000.5",
        "eccentricity" : ".1775604273052976",
        "semi_major_axis" : "1.036546754603182",
        "inclination" : "1.537551332024034",
        "ascending_node_longitude" : "168.6154966654634",
        "orbital_period" : "385.4621781702726",
        "perihelion_distance" : ".8524970699339214",
        "perihelion_argument" : "108.1192411696545",
        "aphelion_distance" : "1.220596439272442",
        "perihelion_time" : "2457970.525395845247",
        "mean_anomaly" : "27.99459481844238",
        "mean_motion" : ".9339437703301072",
        "equinox" : "J2000"
      }
    } ]
  }
}